[{"OBJECT_NAME":"ASTROSAT","OBJECT_ID":"2015-052A","EPOCH":"2026-03-09T22:10:38.920512","MEAN_MOTION":14.82299662,"ECCENTRICITY":0.00076106,"INCLINATION":5.9959,"RA_OF_ASC_NODE":149.7505,"ARG_OF_PERICENTER":54.6851,"MEAN_ANOMALY":305.3988,"EPHEMERIS_TYPE":0,"CLASSIFICATION_TYPE":"U","NORAD_CAT_ID":40930,"ELEMENT_SET_NO":999,"REV_AT_EPOCH":56507,"BSTAR":0.00020001037,"MEAN_MOTION_DOT":2.307e-5,"MEAN_MOTION_DDOT":0},{"OBJECT_NAME":"GEESAT-6 06","OBJECT_ID":"2025-214G","EPOCH":"2026-03-09T23:14:28.648896","MEAN_MOTION":14.82777466,"ECCENTRICITY":0.00100835,"INCLINATION":49.9903,"RA_OF_ASC_NODE":45.5054,"ARG_OF_PERICENTER":219.3637,"MEAN_ANOMALY":140.6569,"EPHEMERIS_TYPE":0,"CLASSIFICATION_TYPE":"U","NORAD_CAT_ID":65718,"ELEMENT_SET_NO":999,"REV_AT_EPOCH":2481,"BSTAR":0.00035226241,"MEAN_MOTION_DOT":2.655e-5,"MEAN_MOTION_DDOT":0}]
